NORAD_CAT_ID,OBJECT_NAME,OBJECT_TYPE,EPOCH,MEAN_MOTION,ECCENTRICITY,INCLINATION,RA_OF_ASC_NODE,ARG_OF_PERICENTER,MEAN_ANOMALY,BSTAR,MEAN_MOTION_DOT,MEAN_MOTION_DDOT,TLE_LINE0,TLE_LINE1,TLE_LINE2,SEMIMAJOR_AXIS,PERIOD,APOGEE,PERIGEE,DECAYED
54204.0,STARLINK-5241,PAYLOAD,2024-08-10 20:42:04,15.0883776,0.00011,53.2162,58.6772,113.907,246.2037,4.8616e-05,4.86e-06,0.0,0 STARLINK-5241,1 54204U 22141AZ  24223.86255119  .00000486  00000-0  48616-4 0  9992,2 54204  53.2162  58.6772 0001100 113.9070 246.2037 15.08837760 99078,6917.887,95.438,540.513,538.991,0.0
54204.0,STARLINK-5241,PAYLOAD,2024-08-11 18:57:28,15.08835599,0.0001105,53.2177,54.514,89.3347,270.7772,0.00016121,2.278e-05,0.0,0 STARLINK-5241,1 54204U 22141AZ  24224.78991694  .00002278  00000-0  16121-3 0  9995,2 54204  53.2177  54.5140 0001105  89.3347 270.7772 15.08835599 99218,6917.894,95.438,540.523,538.994,0.0
54204.0,STARLINK-5241,PAYLOAD,2024-08-12 12:26:42,15.08850765,0.0002611,53.2165,51.2429,95.3425,264.7865,0.00029327,4.384e-05,0.0,0 STARLINK-5241,1 54204U 22141AZ  24225.51855036  .00004384  00000-0  29327-3 0  9998,2 54204  53.2165  51.2429 0002611  95.3425 264.7865 15.08850765 99551,6917.847,95.437,541.519,537.906,0.0
54204.0,STARLINK-5241,PAYLOAD,2024-08-12 21:59:00,15.08861082,0.000131,53.2167,49.4585,106.9672,253.1464,0.00046729,7.161e-05,0.0,0 STARLINK-5241,1 54204U 22141AZ  24225.91598336  .00007161  00000-0  46729-3 0  9990,2 54204  53.2167  49.4585 0001310 106.9672 253.1464 15.08861082 99385,6917.816,95.436,540.587,538.775,0.0
54204.0,STARLINK-5241,PAYLOAD,2024-08-13 12:17:31,15.08786711,0.0002048,53.2158,46.7872,71.5125,288.6089,-0.0010191,-0.00016447,0.0,0 STARLINK-5241,1 54204U 22141AZ  24226.51217523 -.00016447  00000-0 -10191-2 0  9995,2 54204  53.2158  46.7872 0002048  71.5125 288.6089 15.08786711 99700,6918.043,95.441,541.325,538.491,0.0
54204.0,STARLINK-5241,PAYLOAD,2024-08-13 18:39:04,15.0879557,0.000252,53.2114,45.595,85.3562,274.7718,-0.00069091,-0.00011255,0.0,0 STARLINK-5241,1 54204U 22141AZ  24226.77713873 -.00011255  00000-0 -69091-3 0  9998,2 54204  53.2114  45.5950 0002520  85.3562 274.7718 15.08795570 99741,6918.016,95.44,541.625,538.138,0.0
54204.0,STARLINK-5241,PAYLOAD,2024-08-13 21:49:50,15.088203,0.0002303,53.212,45.0007,88.8763,271.2493,-8.3815e-05,-1.621e-05,0.0,0 STARLINK-5241,1 54204U 22141AZ  24226.90961340 -.00001621  00000-0 -83815-4 0  9994,2 54204  53.2120  45.0007 0002303  88.8763 271.2493 15.08820300 99535,6917.941,95.439,541.399,538.212,0.0
54204.0,STARLINK-5241,PAYLOAD,2024-08-14 12:08:18,15.08838252,0.0001164,53.2175,42.3245,89.5564,270.5561,0.00049536,7.604e-05,0.0,0 STARLINK-5241,1 54204U 22141AZ  24227.50576851  .00007604  00000-0  49536-3 0  9996,2 54204  53.2175  42.3245 0001164  89.5564 270.5561 15.08838252 99858,6917.886,95.438,540.556,538.945,0.0
54204.0,STARLINK-5241,PAYLOAD,2024-08-14 18:29:50,15.08851011,0.0001545,53.2164,41.1353,86.129,273.9878,0.00076321,0.00011883,0.0,0 STARLINK-5241,1 54204U 22141AZ  24227.77072702  .00011883  00000-0  76321-3 0  9997,2 54204  53.2164  41.1353 0001545  86.1290 273.9878 15.08851011 99660,6917.847,95.437,540.781,538.643,0.0
54204.0,STARLINK-5241,PAYLOAD,2024-08-15 04:02:08,15.08868386,0.0001275,53.2173,39.3509,88.9962,271.1177,0.00098561,0.00015445,0.0,0 STARLINK-5241,1 54204U 22141AZ  24228.16815823  .00015445  00000-0  98561-3 0  9998,2 54204  53.2173  39.3509 0001275  88.9962 271.1177 15.08868386 99955,6917.794,95.436,540.541,538.777,0.0
54204.0,STARLINK-5241,PAYLOAD,2024-08-15 18:20:37,15.08850882,0.0001561,53.2156,36.6703,88.3541,271.763,-0.00058112,-9.527e-05,0.0,0 STARLINK-5241,1 54204U 22141AZ  24228.76431819 -.00009527  00000-0 -58112-3 0  9997,2 54204  53.2156  36.6703 0001561  88.3541 271.7630 15.08850882100042,6917.847,95.437,540.792,538.632,0.0
54204.0,STARLINK-5241,PAYLOAD,2024-08-16 03:52:55,15.08851392,0.0001594,53.2174,34.8905,96.0626,264.0548,0.00010286,1.35e-05,0.0,0 STARLINK-5241,1 54204U 22141AZ  24229.16175661  .00001350  00000-0  10286-3 0  9996,2 54204  53.2174  34.8905 0001594  96.0626 264.0548 15.08851392100109,6917.846,95.437,540.813,538.608,0.0
54204.0,STARLINK-5241,PAYLOAD,2024-08-16 21:22:10,15.0884139,0.0001934,53.2182,31.6209,103.0057,257.1151,0.00020952,3.048e-05,0.0,0 STARLINK-5241,1 54204U 22141AZ  24229.89040068  .00003048  00000-0  20952-3 0  9995,2 54204  53.2182  31.6209 0001934 103.0057 257.1151 15.08841390 99988,6917.876,95.437,541.079,538.403,0.0
54204.0,STARLINK-5241,PAYLOAD,2024-08-17 19:37:35,15.08839632,0.0002251,53.2177,27.4544,80.1834,279.9412,0.00017468,2.493e-05,0.0,0 STARLINK-5241,1 54204U 22141AZ  24230.81776629  .00002493  00000-0  17468-3 0  9999,2 54204  53.2177  27.4544 0002251  80.1834 279.9412 15.08839632100350,6917.882,95.438,541.304,538.189,0.0
54204.0,STARLINK-5241,PAYLOAD,2024-08-18 17:52:58,15.08852124,0.0001334,53.2171,23.2962,81.684,278.4304,0.00041792,6.372e-05,0.0,0 STARLINK-5241,1 54204U 22141AZ  24231.74512026  .00006372  00000-0  41792-3 0  9998,2 54204  53.2171  23.2962 0001334  81.6840 278.4304 15.08852124100261,6917.843,95.437,540.631,538.785,0.0
54204.0,STARLINK-5241,PAYLOAD,2024-08-19 03:25:16,15.08859371,0.0001243,53.218,21.5088,73.9141,286.1988,0.00045779,7.009e-05,0.0,0 STARLINK-5241,1 54204U 22141AZ  24232.14255350  .00007009  00000-0  45779-3 0  9994,2 54204  53.2180  21.5088 0001243  73.9141 286.1988 15.08859371100555,6917.821,95.436,540.546,538.826,0.0
54204.0,STARLINK-5241,PAYLOAD,2024-08-19 09:46:50,15.08828977,0.0001301,53.2182,20.3183,83.6637,276.4504,-0.00017116,-3.01e-05,0.0,0 STARLINK-5241,1 54204U 22141AZ  24232.40752427 -.00003010  00000-0 -17116-3 0  9994,2 54204  53.2182  20.3183 0001301  83.6637 276.4504 15.08828977100591,6917.914,95.438,540.679,538.879,0.0
54204.0,STARLINK-5241,PAYLOAD,2024-08-20 03:16:04,15.08838563,0.0001685,53.2181,17.0481,79.77,280.3482,6.5581e-05,7.56e-06,0.0,0 STARLINK-5241,1 54204U 22141AZ  24233.13616465  .00000756  00000-0  65581-4 0  9998,2 54204  53.2181  17.0481 0001685  79.7700 280.3482 15.08838563100700,6917.885,95.438,540.915,538.584,0.0
54204.0,STARLINK-5241,PAYLOAD,2024-08-20 14:23:46,15.0884416,0.0001651,53.2172,14.9676,74.7628,285.3546,0.00025781,3.818e-05,0.0,0 STARLINK-5241,1 54204U 22141AZ  24233.59984397  .00003818  00000-0  25781-3 0  9999,2 54204  53.2172  14.9676 0001651  74.7628 285.3546 15.08844160100547,6917.868,95.437,540.875,538.591,0.0
54204.0,STARLINK-5241,PAYLOAD,2024-08-21 12:39:10,15.08839926,0.0001166,53.2157,10.7953,83.0587,277.0538,0.00026694,3.963e-05,0.0,0 STARLINK-5241,1 54204U 22141AZ  24234.52720693  .00003963  00000-0  26694-3 0  9995,2 54204  53.2157  10.7953 0001166  83.0587 277.0538 15.08839926100914,6917.881,95.438,540.552,538.939,0.0
54204.0,STARLINK-5241,PAYLOAD,2024-08-21 14:14:33,15.08843562,0.0001268,53.2174,10.5068,86.6159,273.4978,0.00032095,4.824e-05,0.0,0 STARLINK-5241,1 54204U 22141AZ  24234.59344702  .00004824  00000-0  32095-3 0  9994,2 54204  53.2174  10.5068 0001268  86.6159 273.4978 15.08843562100699,6917.87,95.437,540.612,538.857,0.0
54204.0,STARLINK-5241,PAYLOAD,2024-08-21 19:00:43,15.08833739,0.00013,53.2191,9.6132,87.1271,272.987,8.5644e-05,1.075e-05,0.0,0 STARLINK-5241,1 54204U 22141AZ  24234.79217027  .00001075  00000-0  85644-4 0  9999,2 54204  53.2191   9.6132 0001300  87.1271 272.9870 15.08833739100721,6917.9,95.438,540.664,538.865,0.0
